      2.10          N: GNSS NAV DATA                        RINEX VERSION / TYPE
fic2rin                                 03/31/2018 00:06:24 PGM / RUN BY / DATE
                                                            END OF HEADER
23 18  3 30 12  0  0.0-2.183020114899e-04 2.273736754432e-13 0.000000000000e+00
    1.100000000000e+01 6.475000000000e+01 4.921990734956e-09 1.622962085171e+00
    3.470107913017e-06 1.217635034118e-02 1.228600740433e-05 5.153580942154e+03
    4.752000000000e+05-2.533197402954e-07 4.529367319586e-01 1.117587089539e-07
    9.441048368874e-01 1.387500000000e+02-2.380908887783e+00-8.326775415047e-09
    4.521616914922e-10 1.000000000000e+00 1.994000000000e+03 0.000000000000e+00
    2.400000000000e+00 0.000000000000e+00-2.002343535423e-08 1.100000000000e+01
    4.680060000000e+05 4.000000000000e+00
12 18  3 30 12  0  0.0 3.424696624279e-04-2.160049916711e-12 0.000000000000e+00
    9.100000000000e+01-5.721875000000e+01 3.808015761999e-09-5.138001278720e-01
   -3.004446625710e-06 7.140339468606e-03 1.076608896255e-05 5.153623268127e+03
    4.752000000000e+05-1.117587089539e-08 2.623704183171e+00 1.341104507446e-07
    9.871890060989e-01 1.864062500000e+02 9.464201783136e-01-7.819968590223e-09
   -5.178787145843e-10 1.000000000000e+00 1.994000000000e+03 0.000000000000e+00
    3.400000000000e+00 0.000000000000e+00-1.257285475731e-08 9.100000000000e+01
    4.680060000000e+05 4.000000000000e+00
 7 18  3 30 12  0  0.0 2.152351662517e-04-5.798028723802e-12 0.000000000000e+00
    6.000000000000e+01 8.437500000000e+00 5.245932799872e-09 7.996095026025e-02
    4.414469003677e-07 1.131846325006e-02 2.548098564148e-06 5.153670015335e+03
    4.752000000000e+05 1.303851604462e-08 1.532117324299e+00 1.247972249985e-07
    9.587655333243e-01 3.252812500000e+02-2.540871413539e+00-8.835010870809e-09
   -1.196478409557e-10 1.000000000000e+00 1.994000000000e+03 0.000000000000e+00
    2.400000000000e+00 0.000000000000e+00-1.117587089539e-08 6.000000000000e+01
    4.680060000000e+05 4.000000000000e+00
32 18  3 30 12  0  0.0-5.249157547951e-04 2.955857780762e-12 0.000000000000e+00
    1.400000000000e+01 7.375000000000e+01 4.525188492264e-09-2.566200799947e+00
    3.842636942863e-06 1.877670292743e-03 1.155212521553e-05 5.153655826569e+03
    4.752000000000e+05-3.725290298462e-09 4.587105433868e-01-5.587935447693e-09
    9.576703738322e-01 1.542812500000e+02-2.638656595713e+00-8.017833974968e-09
    4.521616914922e-10 1.000000000000e+00 1.994000000000e+03 0.000000000000e+00
    2.400000000000e+00 0.000000000000e+00 4.656612873077e-10 1.400000000000e+01
    4.680060000000e+05 4.000000000000e+00
26 18  3 30 12  0  0.0-1.999856904149e-04 1.318767317571e-11 0.000000000000e+00
    1.400000000000e+01-7.484375000000e+01 4.438399162855e-09-1.502933137049e+00
   -3.913417458534e-06 2.775624394417e-03 1.050159335136e-05 5.153634084702e+03
    4.752000000000e+05-7.450580596924e-09 2.543776245120e+00-2.980232238770e-08
    9.563712074881e-01 1.759062500000e+02 8.869758773055e-02-8.032834599804e-09
   -5.725238479163e-10 1.000000000000e+00 1.994000000000e+03 0.000000000000e+00
    2.400000000000e+00 0.000000000000e+00 7.450580596924e-09 1.400000000000e+01
    4.680060000000e+05 4.000000000000e+00
22 18  3 30 12  0  0.0-3.406819887459e-04-1.296029950026e-11 0.000000000000e+00
    1.040000000000e+02-1.142812500000e+02 5.407368095729e-09 2.299695603576e+00
   -5.941838026047e-06 7.420446607284e-03 9.775161743164e-06 5.153559728622e+03
    4.752000000000e+05 1.415610313416e-07-6.370608931719e-01-5.960464477539e-08
    9.249819462623e-01 1.733437500000e+02-1.584258157477e+00-8.411421798052e-09
   -4.989493546719e-10 1.000000000000e+00 1.994000000000e+03 0.000000000000e+00
    2.400000000000e+00 0.000000000000e+00-1.769512891769e-08 1.040000000000e+02
    4.680060000000e+05 4.000000000000e+00
24 18  3 30 12  0  0.0-4.790863022208e-05-4.547473508865e-13 0.000000000000e+00
    1.200000000000e+02 1.790625000000e+01 5.568446233851e-09 1.010040835409e+00
    1.111999154091e-06 6.894717109390e-03 2.684071660042e-06 5.153648141861e+03
    4.752000000000e+05 3.911554813385e-08 1.473329558981e+00 9.313225746155e-08
    9.418540511103e-01 3.158437500000e+02 5.411867837904e-01-8.903227998040e-09
   -8.214627886510e-11 1.000000000000e+00 1.994000000000e+03 0.000000000000e+00
    3.400000000000e+00 0.000000000000e+00 2.793967723846e-09 1.200000000000e+02
    4.680060000000e+05 4.000000000000e+00
15 18  3 30 12  0  0.0-3.559752367437e-04 3.410605131648e-13 0.000000000000e+00
    6.300000000000e+01 5.443750000000e+01 5.180572934514e-09 2.084248789259e+00
    2.803280949593e-06 1.020140433684e-02 1.174770295620e-05 5.153720355988e+03
    4.752000000000e+05-2.868473529816e-07 3.847639638778e-01-1.154839992523e-07
    9.288602123105e-01 1.383125000000e+02 6.725297238253e-01-8.274273228121e-09
    3.800158291846e-10 1.000000000000e+00 1.994000000000e+03 0.000000000000e+00
    2.400000000000e+00 0.000000000000e+00-1.071020960808e-08 6.300000000000e+01
    4.680060000000e+05 4.000000000000e+00
18 18  3 30 12  0  0.0-9.549316018820e-06 4.888534022029e-12 0.000000000000e+00
    3.300000000000e+01 1.578125000000e+01 5.423083036033e-09 4.861467366372e-01
    6.835907697678e-07 1.433150144294e-02 2.369284629822e-06 5.153665618896e+03
    4.752000000000e+05-2.086162567139e-07-1.668762365142e+00-3.725290298462e-09
    9.485481023787e-01 3.281875000000e+02 1.296448078426e+00-9.057877296947e-09
    8.143196339671e-11 1.000000000000e+00 1.994000000000e+03 0.000000000000e+00
    2.400000000000e+00 0.000000000000e+00-6.519258022308e-09 3.300000000000e+01
    4.680060000000e+05 4.000000000000e+00
19 18  3 30 12  0  0.0-4.472876898944e-04 2.728484105319e-12 0.000000000000e+00
    5.000000000000e+01 8.093750000000e+01 3.944450016462e-09-4.388477614622e-01
    4.427507519722e-06 9.762917645276e-03 1.056306064129e-05 5.153706775665e+03
    4.752000000000e+05-3.725290298462e-08-2.578683699978e+00 1.229345798492e-07
    9.799920986845e-01 1.896875000000e+02 1.144356865320e+00-7.943545166255e-09
    5.885959459551e-10 1.000000000000e+00 1.994000000000e+03 0.000000000000e+00
    2.400000000000e+00 0.000000000000e+00-1.536682248116e-08 5.000000000000e+01
    4.680060000000e+05 4.000000000000e+00
17 18  3 30 12  0  0.0-1.113303005695e-04 3.296918293927e-12 0.000000000000e+00
    6.600000000000e+01 8.287500000000e+01 3.696582548929e-09 2.810093424333e+00
    4.315748810768e-06 1.229338382836e-02 1.095049083233e-05 5.153786081314e+03
    4.752000000000e+05 1.098960638046e-07-2.625776770896e+00-1.136213541031e-07
    9.825496393649e-01 1.756250000000e+02-1.782013489455e+00-7.474597061256e-09
    5.068068248242e-10 1.000000000000e+00 1.994000000000e+03 0.000000000000e+00
    2.400000000000e+00 0.000000000000e+00-1.117587089539e-08 6.600000000000e+01
    4.680060000000e+05 4.000000000000e+00
16 18  3 30 12  0  0.0 2.900790423155e-05-9.094947017729e-13 0.000000000000e+00
    5.900000000000e+01-6.106250000000e+01 3.606935957646e-09-2.411372164290e+00
   -3.261491656303e-06 1.002490299288e-02 1.238100230694e-05 5.153613687515e+03
    4.752000000000e+05 5.401670932770e-08 2.642591900937e+00-1.322478055954e-07
    9.876388929070e-01 1.543125000000e+02 4.919042526209e-01-7.555314709184e-09
   -4.800199947595e-10 1.000000000000e+00 1.994000000000e+03 0.000000000000e+00
    2.400000000000e+00 0.000000000000e+00-1.071020960808e-08 5.900000000000e+01
    4.680060000000e+05 4.000000000000e+00
29 18  3 30 12  0  0.0 4.742727614939e-04-6.139089236967e-12 0.000000000000e+00
    8.300000000000e+01 8.537500000000e+01 3.813015970277e-09-2.064932317999e+00
    4.449859261513e-06 6.246695993468e-04 1.032464206219e-05 5.153719482422e+03
    4.752000000000e+05-5.587935447693e-08-2.615260471639e+00-4.656612873077e-08
    9.837963674104e-01 1.935937500000e+02 8.706474718133e-01-7.709606850357e-09
    4.496615873529e-10 1.000000000000e+00 1.994000000000e+03 0.000000000000e+00
    2.400000000000e+00 0.000000000000e+00-1.024454832077e-08 8.300000000000e+01
    4.680060000000e+05 4.000000000000e+00
20 18  3 30 12  0  0.0 5.045128054917e-04 1.023181539495e-12 0.000000000000e+00
    5.000000000000e+01-9.768750000000e+01 5.324150343661e-09 1.466749264223e+00
   -5.144625902176e-06 4.288502503186e-03 8.463859558105e-06 5.154830276489e+03
    4.752000000000e+05 2.607703208923e-08-6.872333013169e-01-6.519258022308e-08
    9.282005020880e-01 1.995000000000e+02 1.907040339199e+00-8.460352407637e-09
   -4.093027633887e-10 1.000000000000e+00 1.994000000000e+03 0.000000000000e+00
    2.400000000000e+00 0.000000000000e+00-8.381903171539e-09 5.000000000000e+01
    4.680060000000e+05 4.000000000000e+00
28 18  3 30 12  0  0.0 7.017068564892e-04 3.410605131648e-12 0.000000000000e+00
    6.800000000000e+01-7.325000000000e+01 3.556219559390e-09-2.455595345426e+00
   -3.727152943611e-06 1.955035608262e-02 1.199729740620e-05 5.153679582596e+03
    4.752000000000e+05 2.495944499969e-07 2.646880319475e+00-1.676380634308e-08
    9.865029589623e-01 1.585312500000e+02-1.523665582810e+00-7.267088417688e-09
   -5.553802766749e-10 1.000000000000e+00 1.994000000000e+03 0.000000000000e+00
    3.400000000000e+00 0.000000000000e+00-1.117587089539e-08 6.800000000000e+01
    4.680060000000e+05 4.000000000000e+00
 4 18  3 30 12  0  0.0 4.886556416750e-05 2.955857780762e-12 0.000000000000e+00
    5.000000000000e+00-6.593750000000e+01 5.111284334080e-09-2.116182680257e+00
   -3.442168235779e-06 9.777821484022e-03 1.090019941330e-05 5.153688140869e+03
    4.752000000000e+05 1.043081283569e-07 2.589340269673e+00-6.146728992462e-08
    9.796609379189e-01 1.787187500000e+02 9.075794429096e-01-7.602459530098e-09
   -4.950206195958e-10 1.000000000000e+00 1.994000000000e+03 0.000000000000e+00
    2.400000000000e+00 6.300000000000e+01-1.955777406693e-08 5.000000000000e+00
    4.680360000000e+05 4.000000000000e+00
